[{"OBJECT_NAME":"STARLINK-32302","OBJECT_ID":"2024-191A","EPOCH":"2025-10-04T20:03:50.475168","MEAN_MOTION":15.27565801,"ECCENTRICITY":5.58e-5,"INCLINATION":43.0031,"RA_OF_ASC_NODE":314.4233,"ARG_OF_PERICENTER":269.9032,"MEAN_ANOMALY":90.1756,"EPHEMERIS_TYPE":0,"CLASSIFICATION_TYPE":"U","NORAD_CAT_ID":61621,"ELEMENT_SET_NO":999,"REV_AT_EPOCH":5445,"BSTAR":4.823e-5,"MEAN_MOTION_DOT":1.065e-5,"MEAN_MOTION_DDOT":0},{"OBJECT_NAME":"STARLINK-32364","OBJECT_ID":"2024-191B","EPOCH":"2025-10-03T12:55:30.286272","MEAN_MOTION":15.27580536,"ECCENTRICITY":6.603e-5,"INCLINATION":42.9998,"RA_OF_ASC_NODE":321.8807,"ARG_OF_PERICENTER":263.4153,"MEAN_ANOMALY":96.6623,"EPHEMERIS_TYPE":0,"CLASSIFICATION_TYPE":"U","NORAD_CAT_ID":61622,"ELEMENT_SET_NO":999,"REV_AT_EPOCH":5350,"BSTAR":-6.6115227e-5,"MEAN_MOTION_DOT":-2.081e-5,"MEAN_MOTION_DDOT":0},{"OBJECT_NAME":"STARLINK-32331","OBJECT_ID":"2024-191C","EPOCH":"2025-10-05T02:53:03.971904","MEAN_MOTION":15.27591198,"ECCENTRICITY":0.0001001,"INCLINATION":43.001,"RA_OF_ASC_NODE":316.5859,"ARG_OF_PERICENTER":256.785,"MEAN_ANOMALY":103.289,"EPHEMERIS_TYPE":0,"CLASSIFICATION_TYPE":"U","NORAD_CAT_ID":61623,"ELEMENT_SET_NO":999,"REV_AT_EPOCH":5370,"BSTAR":-1.0194e-5,"MEAN_MOTION_DOT":-5.43e-6,"MEAN_MOTION_DDOT":0},{"OBJECT_NAME":"STARLINK-32398","OBJECT_ID":"2024-191D","EPOCH":"2025-10-05T02:51:54.597024","MEAN_MOTION":15.27590976,"ECCENTRICITY":9.41e-5,"INCLINATION":43.0016,"RA_OF_ASC_NODE":313.1077,"ARG_OF_PERICENTER":293.8296,"MEAN_ANOMALY":66.2457,"EPHEMERIS_TYPE":0,"CLASSIFICATION_TYPE":"U","NORAD_CAT_ID":61624,"ELEMENT_SET_NO":999,"REV_AT_EPOCH":5374,"BSTAR":4.4441e-6,"MEAN_MOTION_DOT":-1.4e-6,"MEAN_MOTION_DDOT":0},{"OBJECT_NAME":"STARLINK-32365","OBJECT_ID":"2024-191E","EPOCH":"2025-10-04T13:50:53.428128","MEAN_MOTION":15.27590041,"ECCENTRICITY":0.0001401,"INCLINATION":43.0028,"RA_OF_ASC_NODE":315.9155,"ARG_OF_PERICENTER":264.7751,"MEAN_ANOMALY":95.294,"EPHEMERIS_TYPE":0,"CLASSIFICATION_TYPE":"U","NORAD_CAT_ID":61625,"ELEMENT_SET_NO":999,"REV_AT_EPOCH":5366,"BSTAR":3.8843e-5,"MEAN_MOTION_DOT":8.07e-6,"MEAN_MOTION_DDOT":0},{"OBJECT_NAME":"STARLINK-32333","OBJECT_ID":"2024-191F","EPOCH":"2025-10-05T03:09:42.952032","MEAN_MOTION":15.27592608,"ECCENTRICITY":0.0001007,"INCLINATION":43.0011,"RA_OF_ASC_NODE":316.67,"ARG_OF_PERICENTER":269.9633,"MEAN_ANOMALY":90.1103,"EPHEMERIS_TYPE":0,"CLASSIFICATION_TYPE":"U","NORAD_CAT_ID":61626,"ELEMENT_SET_NO":999,"REV_AT_EPOCH":5370,"BSTAR":-9.9133e-6,"MEAN_MOTION_DOT":-5.35e-6,"MEAN_MOTION_DDOT":0},{"OBJECT_NAME":"STARLINK-32399","OBJECT_ID":"2024-191G","EPOCH":"2025-10-05T01:54:06.029280","MEAN_MOTION":15.275828,"ECCENTRICITY":0.00013,"INCLINATION":43.0088,"RA_OF_ASC_NODE":305.8782,"ARG_OF_PERICENTER":264.8049,"MEAN_ANOMALY":95.2654,"EPHEMERIS_TYPE":0,"CLASSIFICATION_TYPE":"U","NORAD_CAT_ID":61627,"ELEMENT_SET_NO":999,"REV_AT_EPOCH":5382,"BSTAR":3.3948e-6,"MEAN_MOTION_DOT":-1.69e-6,"MEAN_MOTION_DDOT":0},{"OBJECT_NAME":"STARLINK-32421","OBJECT_ID":"2024-191H","EPOCH":"2025-10-04T19:10:23.107584","MEAN_MOTION":15.27584382,"ECCENTRICITY":8.91e-5,"INCLINATION":43.0012,"RA_OF_ASC_NODE":315.0031,"ARG_OF_PERICENTER":300.046,"MEAN_ANOMALY":60.0304,"EPHEMERIS_TYPE":0,"CLASSIFICATION_TYPE":"U","NORAD_CAT_ID":61628,"ELEMENT_SET_NO":999,"REV_AT_EPOCH":5369,"BSTAR":-4.7238e-6,"MEAN_MOTION_DOT":-3.92e-6,"MEAN_MOTION_DDOT":0},{"OBJECT_NAME":"STARLINK-32403","OBJECT_ID":"2024-191J","EPOCH":"2025-10-04T12:38:57.266016","MEAN_MOTION":15.27590171,"ECCENTRICITY":9.98e-5,"INCLINATION":42.9976,"RA_OF_ASC_NODE":316.4022,"ARG_OF_PERICENTER":274.7845,"MEAN_ANOMALY":85.2892,"EPHEMERIS_TYPE":0,"CLASSIFICATION_TYPE":"U","NORAD_CAT_ID":61629,"ELEMENT_SET_NO":999,"REV_AT_EPOCH":5365,"BSTAR":3.9745e-5,"MEAN_MOTION_DOT":8.32e-6,"MEAN_MOTION_DDOT":0},{"OBJECT_NAME":"STARLINK-32390","OBJECT_ID":"2024-191K","EPOCH":"2025-10-04T11:30:40.807008","MEAN_MOTION":15.27599707,"ECCENTRICITY":0.000102,"INCLINATION":43.0033,"RA_OF_ASC_NODE":316.9069,"ARG_OF_PERICENTER":263.3908,"MEAN_ANOMALY":96.6827,"EPHEMERIS_TYPE":0,"CLASSIFICATION_TYPE":"U","NORAD_CAT_ID":61630,"ELEMENT_SET_NO":999,"REV_AT_EPOCH":5364,"BSTAR":8.8073e-5,"MEAN_MOTION_DOT":2.164e-5,"MEAN_MOTION_DDOT":0},{"OBJECT_NAME":"STARLINK-32348","OBJECT_ID":"2024-191L","EPOCH":"2025-10-05T02:58:36.607584","MEAN_MOTION":15.27587104,"ECCENTRICITY":0.0001506,"INCLINATION":42.999,"RA_OF_ASC_NODE":316.6103,"ARG_OF_PERICENTER":288.0983,"MEAN_ANOMALY":71.9704,"EPHEMERIS_TYPE":0,"CLASSIFICATION_TYPE":"U","NORAD_CAT_ID":61631,"ELEMENT_SET_NO":999,"REV_AT_EPOCH":5370,"BSTAR":-0.00020853,"MEAN_MOTION_DOT":-5.997e-5,"MEAN_MOTION_DDOT":0},{"OBJECT_NAME":"STARLINK-32455","OBJECT_ID":"2024-191M","EPOCH":"2025-10-04T19:30:02.484000","MEAN_MOTION":15.27590919,"ECCENTRICITY":0.000123,"INCLINATION":42.999,"RA_OF_ASC_NODE":318.5723,"ARG_OF_PERICENTER":286.5982,"MEAN_ANOMALY":73.4734,"EPHEMERIS_TYPE":0,"CLASSIFICATION_TYPE":"U","NORAD_CAT_ID":61632,"ELEMENT_SET_NO":999,"REV_AT_EPOCH":5365,"BSTAR":0.00070213,"MEAN_MOTION_DOT":0.00019115,"MEAN_MOTION_DDOT":0},{"OBJECT_NAME":"STARLINK-32396","OBJECT_ID":"2024-191N","EPOCH":"2025-10-05T03:04:09.899040","MEAN_MOTION":15.27589883,"ECCENTRICITY":0.0001164,"INCLINATION":42.9985,"RA_OF_ASC_NODE":316.6409,"ARG_OF_PERICENTER":268.4512,"MEAN_ANOMALY":91.6206,"EPHEMERIS_TYPE":0,"CLASSIFICATION_TYPE":"U","NORAD_CAT_ID":61633,"ELEMENT_SET_NO":999,"REV_AT_EPOCH":5370,"BSTAR":-1.9604e-5,"MEAN_MOTION_DOT":-8.02e-6,"MEAN_MOTION_DDOT":0},{"OBJECT_NAME":"STARLINK-32355","OBJECT_ID":"2024-191P","EPOCH":"2025-10-05T03:24:31.175136","MEAN_MOTION":15.27564245,"ECCENTRICITY":9.1e-5,"INCLINATION":42.9994,"RA_OF_ASC_NODE":316.7446,"ARG_OF_PERICENTER":263.2664,"MEAN_ANOMALY":96.8084,"EPHEMERIS_TYPE":0,"CLASSIFICATION_TYPE":"U","NORAD_CAT_ID":61634,"ELEMENT_SET_NO":999,"REV_AT_EPOCH":5370,"BSTAR":0.0001152,"MEAN_MOTION_DOT":2.908e-5,"MEAN_MOTION_DDOT":0},{"OBJECT_NAME":"STARLINK-32370","OBJECT_ID":"2024-191Q","EPOCH":"2025-10-05T03:49:03.546912","MEAN_MOTION":15.27575444,"ECCENTRICITY":0.0001581,"INCLINATION":43.0028,"RA_OF_ASC_NODE":312.5454,"ARG_OF_PERICENTER":290.4752,"MEAN_ANOMALY":69.593,"EPHEMERIS_TYPE":0,"CLASSIFICATION_TYPE":"U","NORAD_CAT_ID":61635,"ELEMENT_SET_NO":999,"REV_AT_EPOCH":5375,"BSTAR":2.1743e-5,"MEAN_MOTION_DOT":3.36e-6,"MEAN_MOTION_DDOT":0},{"OBJECT_NAME":"STARLINK-32405","OBJECT_ID":"2024-191R","EPOCH":"2025-10-04T19:39:17.940096","MEAN_MOTION":15.27598183,"ECCENTRICITY":3.91e-5,"INCLINATION":43.0052,"RA_OF_ASC_NODE":318.6181,"ARG_OF_PERICENTER":302.8956,"MEAN_ANOMALY":57.1858,"EPHEMERIS_TYPE":0,"CLASSIFICATION_TYPE":"U","NORAD_CAT_ID":61636,"ELEMENT_SET_NO":999,"REV_AT_EPOCH":5365,"BSTAR":9.6223e-5,"MEAN_MOTION_DOT":2.388e-5,"MEAN_MOTION_DDOT":0},{"OBJECT_NAME":"STARLINK-32419","OBJECT_ID":"2024-191S","EPOCH":"2025-10-05T03:06:43.174368","MEAN_MOTION":15.275767,"ECCENTRICITY":7.8e-5,"INCLINATION":43.0009,"RA_OF_ASC_NODE":313.1832,"ARG_OF_PERICENTER":266.5882,"MEAN_ANOMALY":93.4881,"EPHEMERIS_TYPE":0,"CLASSIFICATION_TYPE":"U","NORAD_CAT_ID":61637,"ELEMENT_SET_NO":999,"REV_AT_EPOCH":5374,"BSTAR":-2.5103e-5,"MEAN_MOTION_DOT":-9.52e-6,"MEAN_MOTION_DDOT":0},{"OBJECT_NAME":"STARLINK-32320","OBJECT_ID":"2024-191T","EPOCH":"2025-10-05T03:35:37.624128","MEAN_MOTION":15.27588325,"ECCENTRICITY":0.0001161,"INCLINATION":43.0026,"RA_OF_ASC_NODE":316.8014,"ARG_OF_PERICENTER":277.8654,"MEAN_ANOMALY":82.2066,"EPHEMERIS_TYPE":0,"CLASSIFICATION_TYPE":"U","NORAD_CAT_ID":61638,"ELEMENT_SET_NO":999,"REV_AT_EPOCH":5370,"BSTAR":-5.5444e-5,"MEAN_MOTION_DOT":-1.788e-5,"MEAN_MOTION_DDOT":0},{"OBJECT_NAME":"STARLINK-32341","OBJECT_ID":"2024-191U","EPOCH":"2025-10-05T02:55:37.033824","MEAN_MOTION":15.27593302,"ECCENTRICITY":9.34e-5,"INCLINATION":43.0017,"RA_OF_ASC_NODE":313.1273,"ARG_OF_PERICENTER":291.9003,"MEAN_ANOMALY":68.1749,"EPHEMERIS_TYPE":0,"CLASSIFICATION_TYPE":"U","NORAD_CAT_ID":61639,"ELEMENT_SET_NO":999,"REV_AT_EPOCH":5374,"BSTAR":-9.2416e-5,"MEAN_MOTION_DOT":-2.805e-5,"MEAN_MOTION_DDOT":0},{"OBJECT_NAME":"STARLINK-32339","OBJECT_ID":"2024-191V","EPOCH":"2025-10-05T03:43:30.481824","MEAN_MOTION":15.27582087,"ECCENTRICITY":0.0001199,"INCLINATION":43.0031,"RA_OF_ASC_NODE":312.5146,"ARG_OF_PERICENTER":261.0884,"MEAN_ANOMALY":98.9832,"EPHEMERIS_TYPE":0,"CLASSIFICATION_TYPE":"U","NORAD_CAT_ID":61640,"ELEMENT_SET_NO":999,"REV_AT_EPOCH":5374,"BSTAR":-2.1385e-5,"MEAN_MOTION_DOT":-8.51e-6,"MEAN_MOTION_DDOT":0},{"OBJECT_NAME":"STARLINK-32327","OBJECT_ID":"2024-191W","EPOCH":"2025-10-05T04:03:51.924672","MEAN_MOTION":15.27575542,"ECCENTRICITY":0.0001818,"INCLINATION":43.0051,"RA_OF_ASC_NODE":312.6168,"ARG_OF_PERICENTER":294.1336,"MEAN_ANOMALY":65.9325,"EPHEMERIS_TYPE":0,"CLASSIFICATION_TYPE":"U","NORAD_CAT_ID":61641,"ELEMENT_SET_NO":999,"REV_AT_EPOCH":5375,"BSTAR":9.4182e-5,"MEAN_MOTION_DOT":2.33e-5,"MEAN_MOTION_DDOT":0},{"OBJECT_NAME":"STARLINK-32264","OBJECT_ID":"2024-191X","EPOCH":"2025-10-05T03:15:15.820992","MEAN_MOTION":15.27564152,"ECCENTRICITY":0.0001644,"INCLINATION":43.005,"RA_OF_ASC_NODE":316.6948,"ARG_OF_PERICENTER":270.4372,"MEAN_ANOMALY":89.6291,"EPHEMERIS_TYPE":0,"CLASSIFICATION_TYPE":"U","NORAD_CAT_ID":61642,"ELEMENT_SET_NO":999,"REV_AT_EPOCH":5370,"BSTAR":2.0412e-7,"MEAN_MOTION_DOT":-2.57e-6,"MEAN_MOTION_DDOT":0},{"OBJECT_NAME":"STARLINK-32337","OBJECT_ID":"2024-191Y","EPOCH":"2025-10-03T05:10:16.229568","MEAN_MOTION":15.27553959,"ECCENTRICITY":7.205e-5,"INCLINATION":43.0006,"RA_OF_ASC_NODE":323.7515,"ARG_OF_PERICENTER":171.2498,"MEAN_ANOMALY":188.8367,"EPHEMERIS_TYPE":0,"CLASSIFICATION_TYPE":"U","NORAD_CAT_ID":61643,"ELEMENT_SET_NO":999,"REV_AT_EPOCH":5421,"BSTAR":0.00021431528,"MEAN_MOTION_DOT":5.635e-5,"MEAN_MOTION_DDOT":0}]
